[{"OBJECT_NAME":"TK-2","OBJECT_ID":"2022-031A","EPOCH":"2026-03-09T22:51:17.143200","MEAN_MOTION":15.02943491,"ECCENTRICITY":0.00164117,"INCLINATION":97.8366,"RA_OF_ASC_NODE":263.9365,"ARG_OF_PERICENTER":100.3205,"MEAN_ANOMALY":259.9871,"EPHEMERIS_TYPE":0,"CLASSIFICATION_TYPE":"U","NORAD_CAT_ID":52150,"ELEMENT_SET_NO":999,"REV_AT_EPOCH":21555,"BSTAR":0.00040164474,"MEAN_MOTION_DOT":5.349e-5,"MEAN_MOTION_DDOT":0},{"OBJECT_NAME":"STARLINK-5545","OBJECT_ID":"2023-064AE","EPOCH":"2026-03-09T12:43:53.603328","MEAN_MOTION":14.98330169,"ECCENTRICITY":0.00029529,"INCLINATION":69.9995,"RA_OF_ASC_NODE":124.9344,"ARG_OF_PERICENTER":272.6194,"MEAN_ANOMALY":87.4627,"EPHEMERIS_TYPE":0,"CLASSIFICATION_TYPE":"U","NORAD_CAT_ID":56476,"ELEMENT_SET_NO":999,"REV_AT_EPOCH":15571,"BSTAR":-9.6141793e-5,"MEAN_MOTION_DOT":-1.24e-5,"MEAN_MOTION_DDOT":0}]
